{
  "type": "FeatureCollection",
  "features": [
    {
      "type": "Feature",
      "properties": {
        "name": "Kandigai low-lying area (Vandalur-Kelambakkam Road)",
        "source": "https://bhuvan-app1.nrsc.gov.in/disaster/disaster.php?id=flood"
      },
      "geometry": {
        "type": "Polygon",
        "coordinates": [
          [
            [
              80.1347593,
              12.8417029
            ],
            [
              80.1331531,
              12.8402657
            ],
            [
              80.1308474,
              12.8355653
            ],
            [
              80.1308474,
              12.8390395
            ],
            [
              80.1306378,
              12.8422072
            ],
            [
              80.1385735,
              12.852427
            ],
            [
              80.137913,
              12.8593267
            ],
            [
              80.1435746,
              12.8597867
            ],
            [
              80.1416874,
              12.8561988
            ],
            [
              80.1432916,
              12.8545429
            ],
            [
              80.1406494,
              12.852611
            ],
            [
              80.1347593,
              12.8417029
            ]
          ]
        ]
      }
    },
    {
      "type": "Feature",
      "properties": {
        "name": "Melakottaiyur-Mambakkam low-lying lake belt",
        "source": "https://bhuvan-app1.nrsc.gov.in/disaster/disaster.php?id=flood"
      },
      "geometry": {
        "type": "Polygon",
        "coordinates": [
          [
            [
              80.1450321,
              12.8353939
            ],
            [
              80.1495284,
              12.8432649
            ],
            [
              80.1570301,
              12.8530133
            ],
            [
              80.1662447,
              12.8546283
            ],
            [
              80.1761952,
              12.8516484
            ],
            [
              80.177599,
              12.8438927
            ],
            [
              80.1722178,
              12.8384179
            ],
            [
              80.1630805,
              12.8397816
            ],
            [
              80.1595554,
              12.8472283
            ],
            [
              80.1546873,
              12.8419911
            ],
            [
              80.1450321,
              12.8353939
            ]
          ]
        ]
      }
    }
  ]
}