{
  "type": "FeatureCollection",
  "features": [
    {
      "type": "Feature",
      "properties": {
        "name": "Mahabalipuram low-lying (Beach region)",
        "source": "https://bhuvan-app1.nrsc.gov.in/disaster/disaster.php?id=flood#"
      },
      "geometry": {
        "type": "Polygon",
        "coordinates": [
          [
            [
              80.203588,
              12.65
            ],
            [
              80.2074339,
              12.6497472
            ],
            [
              80.1982884,
              12.6204058
            ],
            [
              80.1984269,
              12.6177014
            ],
            [
              80.1999512,
              12.61689
            ],
            [
              80.1877571,
              12.5910611
            ],
            [
              80.1842929,
              12.5909259
            ],
            [
              80.1833229,
              12.5922782
            ],
            [
              80.1867871,
              12.6056663
            ],
            [
              80.1902513,
              12.6062072
            ],
            [
              80.1887271,
              12.6095879
            ],
            [
              80.203588,
              12.65
            ]
          ]
        ]
      }
    },
    {
      "type": "Feature",
      "properties": {
        "name": "Mahabalipuram low-lying (Mamavettu - Kuttuvakkam fields)",
        "source": "https://bhuvan-app1.nrsc.gov.in/disaster/disaster.php?id=flood#"
      },
      "geometry": {
        "type": "Polygon",
        "coordinates": [
          [
            [
              80.1767126,
              12.6494801
            ],
            [
              80.175563,
              12.6471782
            ],
            [
              80.1817986,
              12.6409586
            ],
            [
              80.1817986,
              12.6370375
            ],
            [
              80.1732073,
              12.6308176
            ],
            [
              80.1734845,
              12.6282485
            ],
            [
              80.1817986,
              12.6247329
            ],
            [
              80.1812443,
              12.621758
            ],
            [
              80.1858171,
              12.6212171
            ],
            [
              80.1863714,
              12.6164844
            ],
            [
              80.1827686,
              12.6148617
            ],
            [
              80.1888657,
              12.613239
            ],
            [
              80.1902513,
              12.6170253
            ],
            [
              80.1881728,
              12.6233807
            ],
            [
              80.194547,
              12.6305472
            ],
            [
              80.1905285,
              12.6336572
            ],
            [
              80.1910828,
              12.6412291
            ],
            [
              80.1883114,
              12.6471782
            ],
            [
              80.1767126,
              12.6494801
            ]
          ]
        ]
      }
    }
  ]
}